STARLINK-37140
1 68311U 26057T   26106.33884020  .00274717  00000+0  13898-2 0  9990
2 68311  97.2861 230.6859 0001793  86.6975 273.4498 15.80822479  4218
STARLINK-36854
1 68312U 26057U   26106.65383991  .00177620  00000+0  90657-3 0  9991
2 68312  97.2865 231.0233 0001030  60.0117 300.1254 15.80881529  4266
STARLINK-36815
1 68313U 26057V   26106.90629576  .00196630  00000+0  10017-2 0  9995
2 68313  97.2869 231.2910 0001611  42.5558 317.5835 15.80873586  4300
STARLINK-37155
1 68314U 26057W   26106.90479409  .00184653  00000+0  94262-3 0  9991
2 68314  97.2877 231.2924 0001407  84.5927 275.5502 15.80859494  4300
STARLINK-37150
1 68315U 26057X   26106.92905117  .00133203  00000+0  87896-3 0  9994
2 68315  97.2866 231.2597 0001743  61.5358 298.6083 15.75218348  4302
STARLINK-37154
1 68316U 26057Y   26106.60294140  .00181549  00000+0  11902-2 0  9997
2 68316  97.2839 230.9361 0002314  96.8097 263.3431 15.75231296  4251
STARLINK-37139
1 68317U 26057Z   26106.77743536  .00260859  00000+0  13189-2 0  9995
2 68317  97.2848 231.1588 0000638  77.6856 282.4484 15.80872313  4283
STARLINK-37113
1 68318U 26057AA  26106.60505854  .00227021  00000+0  14782-2 0  9991
2 68318  97.2848 230.9338 0002569  98.3814 261.7742 15.75261093  4258
PROGRESS-MS 33
1 68319U 26058A   26106.84451400  .00004242  00000+0  85733-4 0  9990
2 68319  51.6329 243.6903 0006573 315.5681  44.4780 15.48789484  3167
STARLINK-36987
1 68321U 26059A   26106.91668981 -.01900817  00000+0 -20924-1 0  9990
2 68321  53.1594 171.5133 0001120  54.3800  69.1552 15.65609729  5186
STARLINK-37088
1 68322U 26059B   26106.91668981 -.01901774  00000+0 -22267-1 0  9996
2 68322  53.1591 171.5383 0001010  55.8379  55.1432 15.64076892  5186
STARLINK-36983
1 68323U 26059C   26106.91668981 -.01879091  00000+0 -27442-1 0  9993
2 68323  53.1600 171.7423 0000771  77.9451 292.6916 15.58374171  5183
STARLINK-37164
1 68324U 26059D   26106.91668981 -.01896882  00000+0 -23918-1 0  9995
2 68324  53.1597 171.5876 0000955  71.4209  15.2739 15.62199220  5180
STARLINK-36309
1 68325U 26059E   26106.91668981 -.01908586  00000+0 -21207-1 0  9990
2 68325  53.1590 171.4840 0001193  58.3132  79.3314 15.65390648  5188
STARLINK-37206
1 68326U 26059F   26106.91668981 -.01908215  00000+0 -22035-1 0  9990
2 68326  53.1592 171.5017 0001131  56.2187  72.5716 15.64433672  5182
STARLINK-37199
1 68327U 26059G   26106.91668981  .00021053  00000+0  38601-3 0  9992
2 68327  53.1596 172.2544 0000933  39.8574  78.1450 15.49275936  5183
