[{"OBJECT_NAME":"STARLINK-37140","OBJECT_ID":"2026-057T","EPOCH":"2026-04-16T08:07:55.793280","MEAN_MOTION":15.80822479,"ECCENTRICITY":0.0001793,"INCLINATION":97.2861,"RA_OF_ASC_NODE":230.6859,"ARG_OF_PERICENTER":86.6975,"MEAN_ANOMALY":273.4498,"EPHEMERIS_TYPE":0,"CLASSIFICATION_TYPE":"U","NORAD_CAT_ID":68311,"ELEMENT_SET_NO":999,"REV_AT_EPOCH":421,"BSTAR":0.0013898364,"MEAN_MOTION_DOT":0.00274717,"MEAN_MOTION_DDOT":0},{"OBJECT_NAME":"STARLINK-36854","OBJECT_ID":"2026-057U","EPOCH":"2026-04-16T15:41:31.768224","MEAN_MOTION":15.80881529,"ECCENTRICITY":0.00010304,"INCLINATION":97.2865,"RA_OF_ASC_NODE":231.0233,"ARG_OF_PERICENTER":60.0117,"MEAN_ANOMALY":300.1254,"EPHEMERIS_TYPE":0,"CLASSIFICATION_TYPE":"U","NORAD_CAT_ID":68312,"ELEMENT_SET_NO":999,"REV_AT_EPOCH":426,"BSTAR":0.00090657248,"MEAN_MOTION_DOT":0.0017762,"MEAN_MOTION_DDOT":0},{"OBJECT_NAME":"STARLINK-36815","OBJECT_ID":"2026-057V","EPOCH":"2026-04-16T21:45:03.953664","MEAN_MOTION":15.80873586,"ECCENTRICITY":0.00016118,"INCLINATION":97.2869,"RA_OF_ASC_NODE":231.291,"ARG_OF_PERICENTER":42.5558,"MEAN_ANOMALY":317.5835,"EPHEMERIS_TYPE":0,"CLASSIFICATION_TYPE":"U","NORAD_CAT_ID":68313,"ELEMENT_SET_NO":999,"REV_AT_EPOCH":430,"BSTAR":0.0010016724,"MEAN_MOTION_DOT":0.0019663,"MEAN_MOTION_DDOT":0},{"OBJECT_NAME":"STARLINK-37155","OBJECT_ID":"2026-057W","EPOCH":"2026-04-16T21:42:54.209376","MEAN_MOTION":15.80859494,"ECCENTRICITY":0.00014077,"INCLINATION":97.2877,"RA_OF_ASC_NODE":231.2924,"ARG_OF_PERICENTER":84.5927,"MEAN_ANOMALY":275.5502,"EPHEMERIS_TYPE":0,"CLASSIFICATION_TYPE":"U","NORAD_CAT_ID":68314,"ELEMENT_SET_NO":999,"REV_AT_EPOCH":430,"BSTAR":0.00094261737,"MEAN_MOTION_DOT":0.00184653,"MEAN_MOTION_DDOT":0},{"OBJECT_NAME":"STARLINK-37150","OBJECT_ID":"2026-057X","EPOCH":"2026-04-16T22:17:50.021088","MEAN_MOTION":15.75218348,"ECCENTRICITY":0.0001743,"INCLINATION":97.2866,"RA_OF_ASC_NODE":231.2597,"ARG_OF_PERICENTER":61.5358,"MEAN_ANOMALY":298.6083,"EPHEMERIS_TYPE":0,"CLASSIFICATION_TYPE":"U","NORAD_CAT_ID":68315,"ELEMENT_SET_NO":999,"REV_AT_EPOCH":430,"BSTAR":0.00087896414,"MEAN_MOTION_DOT":0.00133203,"MEAN_MOTION_DDOT":0},{"OBJECT_NAME":"STARLINK-37154","OBJECT_ID":"2026-057Y","EPOCH":"2026-04-16T14:28:14.136960","MEAN_MOTION":15.75231296,"ECCENTRICITY":0.00023141,"INCLINATION":97.2839,"RA_OF_ASC_NODE":230.9361,"ARG_OF_PERICENTER":96.8097,"MEAN_ANOMALY":263.3431,"EPHEMERIS_TYPE":0,"CLASSIFICATION_TYPE":"U","NORAD_CAT_ID":68316,"ELEMENT_SET_NO":999,"REV_AT_EPOCH":425,"BSTAR":0.0011901727,"MEAN_MOTION_DOT":0.00181549,"MEAN_MOTION_DDOT":0},{"OBJECT_NAME":"STARLINK-37139","OBJECT_ID":"2026-057Z","EPOCH":"2026-04-16T18:39:30.415104","MEAN_MOTION":15.80872313,"ECCENTRICITY":6.383e-5,"INCLINATION":97.2848,"RA_OF_ASC_NODE":231.1588,"ARG_OF_PERICENTER":77.6856,"MEAN_ANOMALY":282.4484,"EPHEMERIS_TYPE":0,"CLASSIFICATION_TYPE":"U","NORAD_CAT_ID":68317,"ELEMENT_SET_NO":999,"REV_AT_EPOCH":428,"BSTAR":0.0013188643,"MEAN_MOTION_DOT":0.00260859,"MEAN_MOTION_DDOT":0},{"OBJECT_NAME":"STARLINK-37113","OBJECT_ID":"2026-057AA","EPOCH":"2026-04-16T14:31:17.057856","MEAN_MOTION":15.75261093,"ECCENTRICITY":0.00025696,"INCLINATION":97.2848,"RA_OF_ASC_NODE":230.9338,"ARG_OF_PERICENTER":98.3814,"MEAN_ANOMALY":261.7742,"EPHEMERIS_TYPE":0,"CLASSIFICATION_TYPE":"U","NORAD_CAT_ID":68318,"ELEMENT_SET_NO":999,"REV_AT_EPOCH":425,"BSTAR":0.0014781782,"MEAN_MOTION_DOT":0.00227021,"MEAN_MOTION_DDOT":0},{"OBJECT_NAME":"PROGRESS-MS 33","OBJECT_ID":"2026-058A","EPOCH":"2026-04-16T20:16:06.009600","MEAN_MOTION":15.48789484,"ECCENTRICITY":0.00065733,"INCLINATION":51.6329,"RA_OF_ASC_NODE":243.6903,"ARG_OF_PERICENTER":315.5681,"MEAN_ANOMALY":44.478,"EPHEMERIS_TYPE":0,"CLASSIFICATION_TYPE":"U","NORAD_CAT_ID":68319,"ELEMENT_SET_NO":999,"REV_AT_EPOCH":316,"BSTAR":8.5733361e-5,"MEAN_MOTION_DOT":4.242e-5,"MEAN_MOTION_DDOT":0},{"OBJECT_NAME":"STARLINK-36987","OBJECT_ID":"2026-059A","EPOCH":"2026-04-16T22:00:01.999584","MEAN_MOTION":15.65609729,"ECCENTRICITY":0.00011208,"INCLINATION":53.1594,"RA_OF_ASC_NODE":171.5133,"ARG_OF_PERICENTER":54.38,"MEAN_ANOMALY":69.1552,"EPHEMERIS_TYPE":0,"CLASSIFICATION_TYPE":"U","NORAD_CAT_ID":68321,"ELEMENT_SET_NO":999,"REV_AT_EPOCH":518,"BSTAR":-0.020923775,"MEAN_MOTION_DOT":-0.01900817,"MEAN_MOTION_DDOT":0},{"OBJECT_NAME":"STARLINK-37088","OBJECT_ID":"2026-059B","EPOCH":"2026-04-16T22:00:01.999584","MEAN_MOTION":15.64076892,"ECCENTRICITY":0.00010107,"INCLINATION":53.1591,"RA_OF_ASC_NODE":171.5383,"ARG_OF_PERICENTER":55.8379,"MEAN_ANOMALY":55.1432,"EPHEMERIS_TYPE":0,"CLASSIFICATION_TYPE":"U","NORAD_CAT_ID":68322,"ELEMENT_SET_NO":999,"REV_AT_EPOCH":518,"BSTAR":-0.022267106,"MEAN_MOTION_DOT":-0.01901774,"MEAN_MOTION_DDOT":0},{"OBJECT_NAME":"STARLINK-36983","OBJECT_ID":"2026-059C","EPOCH":"2026-04-16T22:00:01.999584","MEAN_MOTION":15.58374171,"ECCENTRICITY":7.715e-5,"INCLINATION":53.16,"RA_OF_ASC_NODE":171.7423,"ARG_OF_PERICENTER":77.9451,"MEAN_ANOMALY":292.6916,"EPHEMERIS_TYPE":0,"CLASSIFICATION_TYPE":"U","NORAD_CAT_ID":68323,"ELEMENT_SET_NO":999,"REV_AT_EPOCH":518,"BSTAR":-0.0274423,"MEAN_MOTION_DOT":-0.01879091,"MEAN_MOTION_DDOT":0},{"OBJECT_NAME":"STARLINK-37164","OBJECT_ID":"2026-059D","EPOCH":"2026-04-16T22:00:01.999584","MEAN_MOTION":15.6219922,"ECCENTRICITY":9.556e-5,"INCLINATION":53.1597,"RA_OF_ASC_NODE":171.5876,"ARG_OF_PERICENTER":71.4209,"MEAN_ANOMALY":15.2739,"EPHEMERIS_TYPE":0,"CLASSIFICATION_TYPE":"U","NORAD_CAT_ID":68324,"ELEMENT_SET_NO":999,"REV_AT_EPOCH":518,"BSTAR":-0.023917746,"MEAN_MOTION_DOT":-0.01896882,"MEAN_MOTION_DDOT":0},{"OBJECT_NAME":"STARLINK-36309","OBJECT_ID":"2026-059E","EPOCH":"2026-04-16T22:00:01.999584","MEAN_MOTION":15.65390648,"ECCENTRICITY":0.00011935,"INCLINATION":53.159,"RA_OF_ASC_NODE":171.484,"ARG_OF_PERICENTER":58.3132,"MEAN_ANOMALY":79.3314,"EPHEMERIS_TYPE":0,"CLASSIFICATION_TYPE":"U","NORAD_CAT_ID":68325,"ELEMENT_SET_NO":999,"REV_AT_EPOCH":518,"BSTAR":-0.021206752,"MEAN_MOTION_DOT":-0.01908586,"MEAN_MOTION_DDOT":0},{"OBJECT_NAME":"STARLINK-37206","OBJECT_ID":"2026-059F","EPOCH":"2026-04-16T22:00:01.999584","MEAN_MOTION":15.64433672,"ECCENTRICITY":0.00011316,"INCLINATION":53.1592,"RA_OF_ASC_NODE":171.5017,"ARG_OF_PERICENTER":56.2187,"MEAN_ANOMALY":72.5716,"EPHEMERIS_TYPE":0,"CLASSIFICATION_TYPE":"U","NORAD_CAT_ID":68326,"ELEMENT_SET_NO":999,"REV_AT_EPOCH":518,"BSTAR":-0.022034627,"MEAN_MOTION_DOT":-0.01908215,"MEAN_MOTION_DDOT":0},{"OBJECT_NAME":"STARLINK-37199","OBJECT_ID":"2026-059G","EPOCH":"2026-04-16T22:00:01.999584","MEAN_MOTION":15.49275936,"ECCENTRICITY":9.333e-5,"INCLINATION":53.1596,"RA_OF_ASC_NODE":172.2544,"ARG_OF_PERICENTER":39.8574,"MEAN_ANOMALY":78.145,"EPHEMERIS_TYPE":0,"CLASSIFICATION_TYPE":"U","NORAD_CAT_ID":68327,"ELEMENT_SET_NO":999,"REV_AT_EPOCH":518,"BSTAR":0.00038600948,"MEAN_MOTION_DOT":0.00021053,"MEAN_MOTION_DDOT":0}]
